[{"OBJECT_NAME":"YAOGAN-30 06B","OBJECT_ID":"2019-045B","EPOCH":"2026-03-09T20:57:59.211936","MEAN_MOTION":15.02091105,"ECCENTRICITY":0.00094792,"INCLINATION":34.9914,"RA_OF_ASC_NODE":214.7206,"ARG_OF_PERICENTER":283.6936,"MEAN_ANOMALY":76.2717,"EPHEMERIS_TYPE":0,"CLASSIFICATION_TYPE":"U","NORAD_CAT_ID":44450,"ELEMENT_SET_NO":999,"REV_AT_EPOCH":36171,"BSTAR":0.00031633807,"MEAN_MOTION_DOT":4.217e-5,"MEAN_MOTION_DDOT":0},{"OBJECT_NAME":"STARLINK-34927","OBJECT_ID":"2025-175Y","EPOCH":"2026-03-09T14:55:22.738080","MEAN_MOTION":15.05645633,"ECCENTRICITY":0.0001915,"INCLINATION":97.6019,"RA_OF_ASC_NODE":302.6445,"ARG_OF_PERICENTER":90.2716,"MEAN_ANOMALY":269.873,"EPHEMERIS_TYPE":0,"CLASSIFICATION_TYPE":"U","NORAD_CAT_ID":65196,"ELEMENT_SET_NO":999,"REV_AT_EPOCH":3263,"BSTAR":1.7277e-5,"MEAN_MOTION_DOT":1.88e-6,"MEAN_MOTION_DDOT":0}]
